NORAD_CAT_ID,OBJECT_NAME,OBJECT_TYPE,EPOCH,MEAN_MOTION,ECCENTRICITY,INCLINATION,RA_OF_ASC_NODE,ARG_OF_PERICENTER,MEAN_ANOMALY,BSTAR,MEAN_MOTION_DOT,MEAN_MOTION_DDOT,TLE_LINE0,TLE_LINE1,TLE_LINE2,SEMIMAJOR_AXIS,PERIOD,APOGEE,PERIGEE,DECAYED
53935.0,STARLINK-5000,PAYLOAD,2022-10-18 20:00:01,15.73205052,0.0001184,53.2174,134.8162,101.5849,8.8982,-9.9343e-06,-2.014e-05,0.0,0 STARLINK-5000,1 53935U 22119BB  22291.83334491 -.00002014  00000-0 -99343-5 0  9993,2 53935  53.2174 134.8162 0001184 101.5849   8.8982 15.73205052  4195,6727.880999999999,91.533,350.542,348.949,0.0
53935.0,STARLINK-5000,PAYLOAD,2022-10-18 22:00:00,15.73204485,0.0001169,53.2175,134.4042,101.3884,121.3282,-9.5092e-07,-7.53e-06,0.0,0 STARLINK-5000,1 53935U 22119BB  22291.91667824 -.00000753  00000-0 -95092-6 0  9997,2 53935  53.2175 134.4042 0001169 101.3884 121.3282 15.73204485  1302,6727.882,91.533,350.534,348.961,0.0
53935.0,STARLINK-5000,PAYLOAD,2022-10-19 14:00:01,15.73238298,0.0001306,53.2164,131.1256,103.032,297.501,-5.5191e-05,-8.371e-05,0.0,0 STARLINK-5000,1 53935U 22119BB  22292.58334491 -.00008371  00000-0 -55191-4 0  9990,2 53935  53.2164 131.1256 0001306 103.0320 297.5010 15.73238298  1302,6727.786,91.531,350.53,348.772,0.0
53935.0,STARLINK-5000,PAYLOAD,2022-10-19 22:00:00,15.73259189,0.0001281999999999,53.2168,129.4668,94.4525,35.0513,-0.00076674,-0.00107137,0.0,0 STARLINK-5000,1 53935U 22119BB  22292.91667824 -.00107137  00000-0 -76674-3 0  9994,2 53935  53.2168 129.4668 0001282  94.4525  35.0513 15.73259189  4360,6727.726,91.53,350.454,348.72900000000016,0.0
53935.0,STARLINK-5000,PAYLOAD,2022-10-20 06:00:00,15.73262811,0.0001147999999999,53.2164,127.8272,92.6022,125.8565,-0.0005792,-0.00081341,0.0,0 STARLINK-5000,1 53935U 22119BB  22293.25001157 -.00081341  00000-0 -57920-3 0  9994,2 53935  53.2164 127.8272 0001148  92.6022 125.8565 15.73262811  4419,6727.715999999999,91.53,350.353,348.809,0.0
53935.0,STARLINK-5000,PAYLOAD,2022-10-20 14:00:01,15.73192023,0.0001472,53.2163,126.1773,96.3923,211.0261,-0.00015441,-0.00022226,0.0,0 STARLINK-5000,1 53935U 22119BB  22293.58334491 -.00022226  00000-0 -15441-3 0  9999,2 53935  53.2163 126.1773 0001472  96.3923 211.0261 15.73192023  1300,6727.918000000002,91.534,350.773,348.793,0.0
53935.0,STARLINK-5000,PAYLOAD,2022-10-20 20:00:01,15.731618,0.0001548,53.2159,124.9411,86.3446,197.7602,0.00034232,0.00047617,0.0,0 STARLINK-5000,1 53935U 22119BB  22293.83334491  .00047617  00000-0  34232-3 0  9995,2 53935  53.2159 124.9411 0001548  86.3446 197.7602 15.73161800  4506,6728.004,91.535,350.911,348.82800000000015,0.0
53935.0,STARLINK-5000,PAYLOAD,2022-10-20 22:00:00,15.73154744,0.0001527,53.216,124.5262,85.8053,310.5269,0.00061247,0.00086054,0.0,0 STARLINK-5000,1 53935U 22119BB  22293.91667824  .00086054  00000-0  61247-3 0  9997,2 53935  53.2160 124.5262 0001527  85.8053 310.5269 15.73154744  1301,6728.024,91.536,350.917,348.862,0.0
53935.0,STARLINK-5000,PAYLOAD,2022-10-21 14:00:01,15.73217334,0.0001144,53.2156,121.2279,98.588,115.6311,0.00048028,0.00067376,0.0,0 STARLINK-5000,1 53935U 22119BB  22294.58334491  .00067376  00000-0  48028-3 0  9990,2 53935  53.2156 121.2279 0001144  98.5880 115.6311 15.73217334  1309,6727.846,91.532,350.48,348.941,0.0
53935.0,STARLINK-5000,PAYLOAD,2022-10-21 20:00:01,15.73257418,0.0001042,53.2156,119.9934,82.7614,108.1509,-0.0004714999999999,-0.00066431,0.0,0 STARLINK-5000,1 53935U 22119BB  22294.83334491 -.00066431  00000-0 -47150-3 0  9996,2 53935  53.2156 119.9934 0001042  82.7614 108.1509 15.73257418  4663,6727.731,91.53,350.298,348.895,0.0
53935.0,STARLINK-5000,PAYLOAD,2022-10-21 22:00:00,15.73242817,0.000101,53.2157,119.5813,79.8149,223.3458,-0.00039488,-0.00055772,0.0,0 STARLINK-5000,1 53935U 22119BB  22294.91667824 -.00055772  00000-0 -39488-3 0  9995,2 53935  53.2157 119.5813 0001010  79.8149 223.3458 15.73242817  1309,6727.773,91.531,350.3180000000001,348.959,0.0
53935.0,STARLINK-5000,PAYLOAD,2022-10-22 14:00:01,15.73227605,9.75e-05,53.2155,116.2804,88.1686,32.8604,1.3091e-05,1.22e-05,0.0,0 STARLINK-5000,1 53935U 22119BB  22295.58334491  .00001220  00000-0  13091-4 0  9990,2 53935  53.2155 116.2804 0000975  88.1686  32.8604 15.73227605  4788,6727.816,91.532,350.337,349.026,0.0
53935.0,STARLINK-5000,PAYLOAD,2022-10-22 22:00:00,15.7319621,8.85e-05,53.215,114.6325,65.3334,144.6855,0.00063874,0.00089973,0.0,0 STARLINK-5000,1 53935U 22119BB  22295.91667824  .00089973  00000-0  63874-3 0  9990,2 53935  53.2150 114.6325 0000885  65.3334 144.6855 15.73196210  1302,6727.906,91.533,350.366,349.176,0.0
53935.0,STARLINK-5000,PAYLOAD,2022-10-23 06:00:00,15.7325854,8.49e-05,53.2147,112.981,79.2102,219.7852,6.2704e-05,8.211e-05,0.0,0 STARLINK-5000,1 53935U 22119BB  22296.25001157  .00008211  00000-0  62704-4 0  9997,2 53935  53.2147 112.9810 0000849  79.2102 219.7852 15.73258540  4887,6727.728,91.53,350.164,349.022,0.0
53935.0,STARLINK-5000,PAYLOAD,2022-10-23 12:00:00,15.73238959,9.34e-05,53.2148,111.7433,87.3301,188.3843,0.00030264,0.00042137,0.0,0 STARLINK-5000,1 53935U 22119BB  22296.50001157  .00042137  00000-0  30264-3 0  9995,2 53935  53.2148 111.7433 0000934  87.3301 188.3843 15.73238959  4920,6727.784000000002,91.531,350.277,349.021,0.0
53935.0,STARLINK-5000,PAYLOAD,2022-10-23 14:00:01,15.73284589,9.82e-05,53.2149,111.3315,82.2282,305.7206,-0.00036374,-0.00051539,0.0,0 STARLINK-5000,1 53935U 22119BB  22296.58334491 -.00051539  00000-0 -36374-3 0  9999,2 53935  53.2149 111.3315 0000982  82.2282 305.7206 15.73284589  1308,6727.654,91.528,350.18,348.858,0.0
53935.0,STARLINK-5000,PAYLOAD,2022-10-23 22:00:00,15.73236023,0.0001042999999999,53.2149,109.6834,66.0706,50.8957,-0.00052126,-0.00073251,0.0,0 STARLINK-5000,1 53935U 22119BB  22296.91667824 -.00073251  00000-0 -52126-3 0  9993,2 53935  53.2149 109.6834 0001043  66.0706  50.8957 15.73236023  4993,6727.792,91.531,350.3590000000001,348.956,0.0
53935.0,STARLINK-5000,PAYLOAD,2022-10-24 14:00:01,15.73075939,9.64e-05,53.2149,106.3827,71.5408,223.2153,0.0002284,0.00031385,0.0,0 STARLINK-5000,1 53935U 22119BB  22297.58334491  .00031385  00000-0  22840-3 0  9998,2 53935  53.2149 106.3827 0000964  71.5408 223.2153 15.73075939  5093,6728.249,91.54,350.76300000000015,349.465,0.0
53935.0,STARLINK-5000,PAYLOAD,2022-10-24 22:00:00,15.73051477,0.0001149999999999,53.2144,104.735,59.4582,324.0898,0.0014932,0.00212982,0.0,0 STARLINK-5000,1 53935U 22119BB  22297.91667824  .00212982  00000-0  14932-2 0  9990,2 53935  53.2144 104.7350 0001150  59.4582 324.0898 15.73051477  1304,6728.319,91.542,350.957,349.41,0.0
53935.0,STARLINK-5000,PAYLOAD,2022-10-25 06:00:00,15.73184147,0.0001066999999999,53.2144,103.0836,71.0882,41.3032,0.00056991,0.00080074,0.0,0 STARLINK-5000,1 53935U 22119BB  22298.25001157  .00080074  00000-0  56991-3 0  9996,2 53935  53.2144 103.0836 0001067  71.0882  41.3032 15.73184147  5208,6727.94,91.534,350.523,349.088,0.0
53935.0,STARLINK-5000,PAYLOAD,2022-10-25 14:00:01,15.73274549,0.0001249,53.2147,101.4345,70.9825,130.3383,-0.00059134,-0.00083059,0.0,0 STARLINK-5000,1 53935U 22119BB  22298.58334491 -.00083059  00000-0 -59134-3 0  9992,2 53935  53.2147 101.4345 0001249  70.9825 130.3383 15.73274549  1306,6727.683000000001,91.529,350.38800000000015,348.707,0.0
53935.0,STARLINK-5000,PAYLOAD,2022-10-25 20:00:01,15.73183292,0.0001372,53.2149,100.1986,60.5941,117.4782,0.00064849,0.00091321,0.0,0 STARLINK-5000,1 53935U 22119BB  22298.83334491  .00091321  00000-0  64849-3 0  9998,2 53935  53.2149 100.1986 0001372  60.5941 117.4782 15.73183292  5291,6727.943,91.534,350.731,348.885,0.0
53935.0,STARLINK-5000,PAYLOAD,2022-10-25 22:00:01,15.73198898,0.0001343,53.2148,99.7862,57.9512,232.4178,0.00057991,0.00081556,0.0,0 STARLINK-5000,1 53935U 22119BB  22298.91668981  .00081556  00000-0  57991-3 0  9990,2 53935  53.2148  99.7862 0001343  57.9512 232.4178 15.73198898  1301,6727.898,91.533,350.667,348.86,0.0
53935.0,STARLINK-5000,PAYLOAD,2022-10-26 06:00:00,15.73211115,0.0001167,53.2151,98.1346,64.9628,314.3132,8.4355e-05,0.0001124,0.0,0 STARLINK-5000,1 53935U 22119BB  22299.25001157  .00011240  00000-0  84355-4 0  9992,2 53935  53.2151  98.1346 0001167  64.9628 314.3132 15.73211115  5352,6727.863,91.533,350.514,348.9430000000001,0.0
53935.0,STARLINK-5000,PAYLOAD,2022-10-26 14:00:01,15.7322493,0.0001308,53.2151,96.4857,60.6625,47.5595,-0.00030992,-0.00043935,0.0,0 STARLINK-5000,1 53935U 22119BB  22299.58334491 -.00043935  00000-0 -30992-3 0  9993,2 53935  53.2151  96.4857 0001308  60.6625  47.5595 15.73224930  1305,6727.824000000001,91.532,350.569,348.809,0.0
53935.0,STARLINK-5000,PAYLOAD,2022-10-26 22:00:00,15.73200165,0.0001401,53.2146,94.8375,53.4292,143.7299,0.00031925,0.00044422,0.0,0 STARLINK-5000,1 53935U 22119BB  22299.91667824  .00044422  00000-0  31925-3 0  9996,2 53935  53.2146  94.8375 0001401  53.4292 143.7299 15.73200165  1304,6727.895,91.533,350.702,348.81699999999995,0.0
53935.0,STARLINK-5000,PAYLOAD,2022-10-27 14:00:01,15.73256093,0.0001353,53.2152,91.5371,55.4219,319.7511,-0.00034294,-0.00048588,0.0,0 STARLINK-5000,1 53935U 22119BB  22300.58335648 -.00048588  00000-0 -34294-3 0  9999,2 53935  53.2152  91.5371 0001353  55.4219 319.7511 15.73256093  5563,6727.735,91.53,350.511,348.69,0.0
53935.0,STARLINK-5000,PAYLOAD,2022-10-27 22:00:00,15.73242155,0.0001452,53.2152,89.8888,43.8705,60.212,-7.230399999999999e-05,-0.00010773,0.0,0 STARLINK-5000,1 53935U 22119BB  22300.91667824 -.00010773  00000-0 -72304-4 0  9990,2 53935  53.2152  89.8888 0001452  43.8705  60.2120 15.73242155  1303,6727.775,91.531,350.617,348.663,0.0
53935.0,STARLINK-5000,PAYLOAD,2022-10-28 06:00:00,15.73219234,0.0001205999999999,53.2155,88.2371,41.552,151.5156,-0.00022699,-0.0003238,0.0,0 STARLINK-5000,1 53935U 22119BB  22301.25001157 -.00032380  00000-0 -22699-3 0  9998,2 53935  53.2155  88.2371 0001206  41.5520 151.5156 15.73219234  5672,6727.84,91.532,350.517,348.894,0.0
